ONEWEB-0098             
1 45442U 20020U   25304.30469707 -.00000325  00000+0 -95186-3 0  9996
2 45442  87.8852  66.6402 0001685  99.8694 260.2625 13.11419087272647
ONEWEB-0055             
1 45443U 20020V   25304.28773859 -.00000349  00000+0 -10220-2 0  9991
2 45443  87.8859  66.6450 0001679 100.6782 259.4536 13.11417616272614
ONEWEB-0093             
1 45444U 20020W   25304.26331952  .00000497  00000+0  13677-2 0  9995
2 45444  87.8857  66.6356 0001226 109.3036 250.8224 13.11416239272679
ONEWEB-0029             
1 45445U 20020X   25304.27926791 -.00000069  00000+0 -23094-3 0  9990
2 45445  87.8857  66.6451 0001557 105.0797 255.0503 13.11413966272659
ONEWEB-0068             
1 45446U 20020Y   25304.26302533  .00000501  00000+0  13791-2 0  9993
2 45446  87.8854  66.6368 0001562 106.7211 253.4089 13.11417607272599
ONEWEB-0046             
1 45447U 20020Z   25304.25468206  .00000580  00000+0  15993-2 0  9996
2 45447  87.8851  66.6469 0001393  98.5081 261.6205 13.11418932272609
ONEWEB-0063             
1 45448U 20020AA  25304.28351333 -.00000287  00000+0 -84547-3 0  9990
2 45448  87.8854  66.6395 0001500  93.1686 266.9614 13.11415827272694
ONEWEB-0019             
1 45449U 20020AB  25304.25724505  .00000539  00000+0  14862-2 0  9993
2 45449  87.8844  66.6585 0001722 102.0705 258.0616 13.11417253272535
